{
  "type": "FeatureCollection",
  "features": [
    {
      "type": "Feature",
      "properties": {
        "norad_id": 15362,
        "name": "NOVA 3",
        "group": "nnss",
        "lat": 3.828377332741782,
        "lon": 80.47942491628797,
        "alt_km": 1153.7156085599017,
        "timestamp": "2025-12-08T17:43:05.199348+00:00",
        "meta_object_name": "NOVA 3",
        "meta_object_id": "1984-110A",
        "meta_epoch": "2025-12-08T07:04:45.642144",
        "meta_mean_motion": 13.23043807,
        "meta_eccentricity": 0.00308382,
        "meta_inclination": 90.1223,
        "meta_ra_of_asc_node": 80.4824,
        "meta_arg_of_pericenter": 344.4998,
        "meta_mean_anomaly": 69.2062,
        "meta_ephemeris_type": 0,
        "meta_classification_type": "U",
        "meta_norad_cat_id": 15362,
        "meta_element_set_no": 999,
        "meta_rev_at_epoch": 98640,
        "meta_bstar": 0.00026414395,
        "meta_mean_motion_dot": 1.2e-06,
        "meta_mean_motion_ddot": 0,
        "tle_line1": "1 15362U 84110A   25342.29497271  .00000120  00000+0  26414-3 0  9990",
        "tle_line2": "2 15362  90.1223  80.4824 0030838 344.4998  69.2062 13.23043807986408"
      },
      "geometry": {
        "type": "Point",
        "coordinates": [
          80.47942491628797,
          3.828377332741782
        ]
      }
    },
    {
      "type": "Feature",
      "properties": {
        "norad_id": 15935,
        "name": "OSCAR 30",
        "group": "nnss",
        "lat": -77.70918568880795,
        "lon": -80.97535184670676,
        "alt_km": 1252.5020148937092,
        "timestamp": "2025-12-08T17:43:05.199359+00:00",
        "meta_object_name": "OSCAR 30",
        "meta_object_id": "1985-066A",
        "meta_epoch": "2025-12-08T07:35:56.736960",
        "meta_mean_motion": 13.36077215,
        "meta_eccentricity": 0.01694135,
        "meta_inclination": 90.1648,
        "meta_ra_of_asc_node": 99.7747,
        "meta_arg_of_pericenter": 96.2484,
        "meta_mean_anomaly": 294.0704,
        "meta_ephemeris_type": 0,
        "meta_classification_type": "U",
        "meta_norad_cat_id": 15935,
        "meta_element_set_no": 999,
        "meta_rev_at_epoch": 96394,
        "meta_bstar": 0.00026352867,
        "meta_mean_motion_dot": 1.57e-06,
        "meta_mean_motion_ddot": 0,
        "tle_line1": "1 15935U 85066A   25342.31662890  .00000157  00000+0  26353-3 0  9993",
        "tle_line2": "2 15935  90.1648  99.7747 0169413  96.2484 294.0704 13.36077215963945"
      },
      "geometry": {
        "type": "Point",
        "coordinates": [
          -80.97535184670676,
          -77.70918568880795
        ]
      }
    },
    {
      "type": "Feature",
      "properties": {
        "norad_id": 15936,
        "name": "OSCAR 24",
        "group": "nnss",
        "lat": -27.157234701345168,
        "lon": 92.3263211753865,
        "alt_km": 1208.55490457394,
        "timestamp": "2025-12-08T17:43:05.199370+00:00",
        "meta_object_name": "OSCAR 24",
        "meta_object_id": "1985-066B",
        "meta_epoch": "2025-12-08T07:09:20.759616",
        "meta_mean_motion": 13.35934856,
        "meta_eccentricity": 0.01704482,
        "meta_inclination": 90.1788,
        "meta_ra_of_asc_node": 92.2268,
        "meta_arg_of_pericenter": 102.7352,
        "meta_mean_anomaly": 276.4044,
        "meta_ephemeris_type": 0,
        "meta_classification_type": "U",
        "meta_norad_cat_id": 15936,
        "meta_element_set_no": 999,
        "meta_rev_at_epoch": 96584,
        "meta_bstar": 0.000245338,
        "meta_mean_motion_dot": 1.47e-06,
        "meta_mean_motion_ddot": 0,
        "tle_line1": "1 15936U 85066B   25342.29815694  .00000147  00000+0  24534-3 0  9991",
        "tle_line2": "2 15936  90.1788  92.2268 0170448 102.7352 276.4044 13.35934856965848"
      },
      "geometry": {
        "type": "Point",
        "coordinates": [
          92.3263211753865,
          -27.157234701345168
        ]
      }
    },
    {
      "type": "Feature",
      "properties": {
        "norad_id": 17070,
        "name": "POLAR BEAR",
        "group": "nnss",
        "lat": -35.2515637393289,
        "lon": -176.33667037813703,
        "alt_km": 1016.1389409982048,
        "timestamp": "2025-12-08T17:43:05.199381+00:00",
        "meta_object_name": "POLAR BEAR",
        "meta_object_id": "1986-088A",
        "meta_epoch": "2025-12-08T02:45:33.510816",
        "meta_mean_motion": 13.75249378,
        "meta_eccentricity": 0.0040681,
        "meta_inclination": 89.6178,
        "meta_ra_of_asc_node": 183.9587,
        "meta_arg_of_pericenter": 132.6802,
        "meta_mean_anomaly": 348.3494,
        "meta_ephemeris_type": 0,
        "meta_classification_type": "U",
        "meta_norad_cat_id": 17070,
        "meta_element_set_no": 999,
        "meta_rev_at_epoch": 95915,
        "meta_bstar": 0.00014716512,
        "meta_mean_motion_dot": 1.53e-06,
        "meta_mean_motion_ddot": 0,
        "tle_line1": "1 17070U 86088A   25342.11497119  .00000153  00000+0  14717-3 0  9995",
        "tle_line2": "2 17070  89.6178 183.9587 0040681 132.6802 348.3494 13.75249378959151"
      },
      "geometry": {
        "type": "Point",
        "coordinates": [
          -176.33667037813703,
          -35.2515637393289
        ]
      }
    },
    {
      "type": "Feature",
      "properties": {
        "norad_id": 18361,
        "name": "OSCAR 27",
        "group": "nnss",
        "lat": -60.09039747239379,
        "lon": 79.77353767279708,
        "alt_km": 1064.7169257916994,
        "timestamp": "2025-12-08T17:43:05.199391+00:00",
        "meta_object_name": "OSCAR 27",
        "meta_object_id": "1987-080A",
        "meta_epoch": "2025-12-08T07:18:12.148992",
        "meta_mean_motion": 13.44905437,
        "meta_eccentricity": 0.01026062,
        "meta_inclination": 90.3742,
        "meta_ra_of_asc_node": 79.1064,
        "meta_arg_of_pericenter": 236.6523,
        "meta_mean_anomaly": 122.4771,
        "meta_ephemeris_type": 0,
        "meta_classification_type": "U",
        "meta_norad_cat_id": 18361,
        "meta_element_set_no": 999,
        "meta_rev_at_epoch": 87497,
        "meta_bstar": 0.00032265234,
        "meta_mean_motion_dot": 2.03e-06,
        "meta_mean_motion_ddot": 0,
        "tle_line1": "1 18361U 87080A   25342.30430728  .00000203  00000+0  32265-3 0  9990",
        "tle_line2": "2 18361  90.3742  79.1064 0102606 236.6523 122.4771 13.44905437874974"
      },
      "geometry": {
        "type": "Point",
        "coordinates": [
          79.77353767279708,
          -60.09039747239379
        ]
      }
    },
    {
      "type": "Feature",
      "properties": {
        "norad_id": 18362,
        "name": "OSCAR 29",
        "group": "nnss",
        "lat": -41.36858609035607,
        "lon": 79.91193813682118,
        "alt_km": 1059.888832351523,
        "timestamp": "2025-12-08T17:43:05.199401+00:00",
        "meta_object_name": "OSCAR 29",
        "meta_object_id": "1987-080B",
        "meta_epoch": "2025-12-08T07:30:41.040864",
        "meta_mean_motion": 13.44447272,
        "meta_eccentricity": 0.01037513,
        "meta_inclination": 90.3754,
        "meta_ra_of_asc_node": 79.5652,
        "meta_arg_of_pericenter": 260.0358,
        "meta_mean_anomaly": 160.5217,
        "meta_ephemeris_type": 0,
        "meta_classification_type": "U",
        "meta_norad_cat_id": 18362,
        "meta_element_set_no": 999,
        "meta_rev_at_epoch": 87450,
        "meta_bstar": 0.00028461817,
        "meta_mean_motion_dot": 1.78e-06,
        "meta_mean_motion_ddot": 0,
        "tle_line1": "1 18362U 87080B   25342.31297501  .00000178  00000+0  28462-3 0  9997",
        "tle_line2": "2 18362  90.3754  79.5652 0103751 260.0358 160.5217 13.44447272874509"
      },
      "geometry": {
        "type": "Point",
        "coordinates": [
          79.91193813682118,
          -41.36858609035607
        ]
      }
    },
    {
      "type": "Feature",
      "properties": {
        "norad_id": 19070,
        "name": "OSCAR 23",
        "group": "nnss",
        "lat": -26.036350902867802,
        "lon": 16.425921595528287,
        "alt_km": 1273.6089483632522,
        "timestamp": "2025-12-08T17:43:05.199412+00:00",
        "meta_object_name": "OSCAR 23",
        "meta_object_id": "1988-033A",
        "meta_epoch": "2025-12-08T03:42:21.852576",
        "meta_mean_motion": 13.27786188,
        "meta_eccentricity": 0.01891446,
        "meta_inclination": 90.3216,
        "meta_ra_of_asc_node": 16.2505,
        "meta_arg_of_pericenter": 192.6834,
        "meta_mean_anomaly": 230.9419,
        "meta_ephemeris_type": 0,
        "meta_classification_type": "U",
        "meta_norad_cat_id": 19070,
        "meta_element_set_no": 999,
        "meta_rev_at_epoch": 82192,
        "meta_bstar": 0.00020927666,
        "meta_mean_motion_dot": 1.12e-06,
        "meta_mean_motion_ddot": 0,
        "tle_line1": "1 19070U 88033A   25342.15441959  .00000112  00000+0  20928-3 0  9990",
        "tle_line2": "2 19070  90.3216  16.2505 0189144 192.6834 230.9419 13.27786188821920"
      },
      "geometry": {
        "type": "Point",
        "coordinates": [
          16.425921595528287,
          -26.036350902867802
        ]
      }
    }
  ]
}